{"type":"FeatureCollection","features":[{"type":"Feature","id":0,"geometry":{"type":"Polygon","coordinates":[[[46.709190166768849,24.669294134650499],[46.709253558151488,24.669081142439268],[46.7113911296276,24.669002991900243],[46.711390897599131,24.669194517037113],[46.709190166768849,24.669294134650499]]]},"properties":{"FID":0,"Id":0,"Name":"Home Parking"}},{"type":"Feature","id":1,"geometry":{"type":"Polygon","coordinates":[[[46.707587871358896,24.670120125976325],[46.70782372779712,24.669706733419332],[46.707643219974386,24.669619582081111],[46.707573304794778,24.669734550130215],[46.707407688008345,24.670034535596358],[46.707345926405765,24.670005899074965],[46.707340817231909,24.67002599477479],[46.707277838597122,24.669986773213338],[46.707345409358197,24.669869251105581],[46.707143440592745,24.669771405419681],[46.706963633991336,24.670093493938055],[46.706844700223428,24.670025707406808],[46.707077904034008,24.669633568113511],[46.707430596690983,24.669802588731102],[46.707618453804457,24.669471540737106],[46.707889525992073,24.669600447775395],[46.707971525906316,24.669639575499048],[46.707938517069806,24.669703711580212],[46.707687366031848,24.670173844955798],[46.707587871358896,24.670120125976325]]]},"properties":{"FID":1,"Id":1,"Name":"Hara Parking"}},{"type":"Feature","id":2,"geometry":{"type":"Polygon","coordinates":[[[46.703786465923677,24.674898775737308],[46.70384535775343,24.6749361906638],[46.703900162222922,24.674979371613997],[46.703950316964132,24.675027875492919],[46.703995307321541,24.675081204585133],[46.70403467163321,24.675138811661988],[46.704068005968018,24.675200105596915],[46.704094968270596,24.675264457431201],[46.704115281871225,24.675331206827948],[46.704128738324869,24.675399668848012],[46.704135199550123,24.675469140978429],[46.704134599246053,24.675538910341128],[46.704126943572597,24.675608261008033],[46.704112311087329,24.675676481347459],[46.704090851939348,24.675742871326403],[46.704062786328549,24.675806749693841],[46.704028402246074,24.675867460971283],[46.703988052519144,24.67592438217887],[46.70394215119056,24.675976929227978],[46.703891169270058,24.676024562914783],[46.70383562990115,24.676066794453199],[46.703776102992897,24.67610319049049],[46.70371319937194,24.676133377554063],[46.703647564514554,24.676157045883794],[46.703579871923196,24.676173952610597],[46.703510816215449,24.676183924248569],[46.703441105996326,24.676186858475219],[46.703371456587007,24.676182725181405],[46.703302582684678,24.676171566780319],[46.703235191028789,24.676153497772251],[46.703169973148917,24.676128703569677],[46.703107598268765,24.67609743859467],[46.703048706439013,24.676060023668178],[46.702993901969521,24.676016842717981],[46.702943747228311,24.675968338839059],[46.702898756870901,24.675915009746845],[46.702859392559233,24.67585740266999],[46.702826058224424,24.675796108735064],[46.702799095921847,24.675731756900777],[46.702778782321218,24.67566500750403],[46.702765325867574,24.675596545483966],[46.70275886464232,24.67552707335355],[46.702759464946389,24.67545730399085],[46.702767120619846,24.675387953323945],[46.702781753105114,24.675319732984519],[46.702803212253095,24.675253343005576],[46.702831277863893,24.675189464638137],[46.702865661946369,24.675128753360696],[46.702906011673299,24.675071832153108],[46.702951913001883,24.675019285104],[46.703002894922385,24.674971651417195],[46.703058434291293,24.674929419878779],[46.703117961199546,24.674893023841488],[46.703180864820503,24.674862836777915],[46.703246499677888,24.674839168448184],[46.703314192269247,24.674822261721381],[46.703383247976994,24.674812290083409],[46.703452958196117,24.674809355856759],[46.703522607605436,24.674813489150573],[46.703591481507765,24.674824647551659],[46.703658873163654,24.674842716559727],[46.703724091043526,24.674867510762301],[46.703786465923677,24.674898775737308]]]},"properties":{"FID":2,"Id":2,"Name":"Dabab Park Signal"}},{"type":"Feature","id":3,"geometry":{"type":"Polygon","coordinates":[[[46.662200778452473,24.727922565488257],[46.662410547382194,24.727454869217411],[46.663062656093018,24.727712703572365],[46.662847483588678,24.72819490253471],[46.662200778452473,24.727922565488257]]]},"properties":{"FID":3,"Id":3,"Name":"Offic Parking 1"}},{"type":"Feature","id":4,"geometry":{"type":"Polygon","coordinates":[[[46.662302770950305,24.727456002711051],[46.661836837049066,24.727265883842847],[46.66160047725424,24.72779386565918],[46.6609346344664,24.727508617487445],[46.661216124966643,24.726950380328162],[46.661821255200891,24.727221265546973],[46.661869600103557,24.727169085363585],[46.662344889326505,24.727371773750576],[46.662302770950305,24.727456002711051]]]},"properties":{"FID":4,"Id":4,"Name":"Office Parking 2"}}]}